{
  "type": "FeatureCollection",
  "features": [
    {
      "type": "Feature",
      "properties": {
        "norad_id": 40069,
        "name": "METEOR-M 2",
        "group": "weather",
        "lat": -25.52759746059995,
        "lon": -19.327605125592743,
        "alt_km": 830.1286186089337,
        "timestamp": "2025-12-25T11:37:44.064748+00:00",
        "meta_object_name": "METEOR-M 2",
        "meta_object_id": "2014-037A",
        "meta_epoch": "2025-12-25T03:18:11.060928",
        "meta_mean_motion": 14.21392091,
        "meta_eccentricity": 0.0005633,
        "meta_inclination": 98.4918,
        "meta_ra_of_asc_node": 336.2473,
        "meta_arg_of_pericenter": 171.1956,
        "meta_mean_anomaly": 188.9321,
        "meta_ephemeris_type": 0,
        "meta_classification_type": "U",
        "meta_norad_cat_id": 40069,
        "meta_element_set_no": 999,
        "meta_rev_at_epoch": 59459,
        "meta_bstar": 0.00024852,
        "meta_mean_motion_dot": 5.01e-06,
        "meta_mean_motion_ddot": 0,
        "tle_line1": "1 40069U 14037A   25359.13762802  .00000501  00000+0  24852-3 0  9996",
        "tle_line2": "2 40069  98.4918 336.2473 0005633 171.1956 188.9321 14.21392091594591"
      },
      "geometry": {
        "type": "Point",
        "coordinates": [
          -19.327605125592743,
          -25.52759746059995
        ]
      }
    },
    {
      "type": "Feature",
      "properties": {
        "norad_id": 40267,
        "name": "HIMAWARI-8",
        "group": "weather",
        "lat": 0.011085879259546868,
        "lon": 49.348938945298485,
        "alt_km": 35787.25416788267,
        "timestamp": "2025-12-25T11:37:44.064784+00:00",
        "meta_object_name": "HIMAWARI-8",
        "meta_object_id": "2014-060A",
        "meta_epoch": "2025-12-24T22:19:40.543968",
        "meta_mean_motion": 1.00271352,
        "meta_eccentricity": 9.3e-05,
        "meta_inclination": 0.0432,
        "meta_ra_of_asc_node": 200.5414,
        "meta_arg_of_pericenter": 104.3876,
        "meta_mean_anomaly": 264.3563,
        "meta_ephemeris_type": 0,
        "meta_classification_type": "U",
        "meta_norad_cat_id": 40267,
        "meta_element_set_no": 999,
        "meta_rev_at_epoch": 4101,
        "meta_bstar": 0,
        "meta_mean_motion_dot": -2.54e-06,
        "meta_mean_motion_ddot": 0,
        "tle_line1": "1 40267U 14060A   25358.93033037 -.00000254  00000+0  00000+0 0  9991",
        "tle_line2": "2 40267   0.0432 200.5414 0000930 104.3876 264.3563  1.00271352 41013"
      },
      "geometry": {
        "type": "Point",
        "coordinates": [
          49.348938945298485,
          0.011085879259546868
        ]
      }
    },
    {
      "type": "Feature",
      "properties": {
        "norad_id": 40367,
        "name": "FENGYUN 2G",
        "group": "weather",
        "lat": -4.789043387686672,
        "lon": 8.02599878859846,
        "alt_km": 35787.42895258365,
        "timestamp": "2025-12-25T11:37:44.064798+00:00",
        "meta_object_name": "FENGYUN 2G",
        "meta_object_id": "2014-090A",
        "meta_epoch": "2025-12-25T01:33:21.992832",
        "meta_mean_motion": 1.00282434,
        "meta_eccentricity": 0.000167,
        "meta_inclination": 5.1966,
        "meta_ra_of_asc_node": 74.9437,
        "meta_arg_of_pericenter": 171.6176,
        "meta_mean_anomaly": 329.8444,
        "meta_ephemeris_type": 0,
        "meta_classification_type": "U",
        "meta_norad_cat_id": 40367,
        "meta_element_set_no": 999,
        "meta_rev_at_epoch": 4025,
        "meta_bstar": 0,
        "meta_mean_motion_dot": -2.82e-06,
        "meta_mean_motion_ddot": 0,
        "tle_line1": "1 40367U 14090A   25359.06483788 -.00000282  00000+0  00000+0 0  9993",
        "tle_line2": "2 40367   5.1966  74.9437 0001670 171.6176 329.8444  1.00282434 40255"
      },
      "geometry": {
        "type": "Point",
        "coordinates": [
          8.02599878859846,
          -4.789043387686672
        ]
      }
    },
    {
      "type": "Feature",
      "properties": {
        "norad_id": 40732,
        "name": "METEOSAT-11 (MSG-4)",
        "group": "weather",
        "lat": -1.2283040470062783,
        "lon": -82.16215198845835,
        "alt_km": 35785.24365491998,
        "timestamp": "2025-12-25T11:37:44.064811+00:00",
        "meta_object_name": "METEOSAT-11 (MSG-4)",
        "meta_object_id": "2015-034A",
        "meta_epoch": "2025-12-24T23:24:56.790720",
        "meta_mean_motion": 1.00271323,
        "meta_eccentricity": 7.13e-05,
        "meta_inclination": 2.7671,
        "meta_ra_of_asc_node": 71.9685,
        "meta_arg_of_pericenter": 137.0347,
        "meta_mean_anomaly": 245.1596,
        "meta_ephemeris_type": 0,
        "meta_classification_type": "U",
        "meta_norad_cat_id": 40732,
        "meta_element_set_no": 999,
        "meta_rev_at_epoch": 547,
        "meta_bstar": 0,
        "meta_mean_motion_dot": 8.1e-07,
        "meta_mean_motion_ddot": 0,
        "tle_line1": "1 40732U 15034A   25358.97565730  .00000081  00000+0  00000+0 0  9991",
        "tle_line2": "2 40732   2.7671  71.9685 0000713 137.0347 245.1596  1.00271323  5470"
      },
      "geometry": {
        "type": "Point",
        "coordinates": [
          -82.16215198845835,
          -1.2283040470062783
        ]
      }
    },
    {
      "type": "Feature",
      "properties": {
        "norad_id": 41105,
        "name": "ELEKTRO-L 2",
        "group": "weather",
        "lat": -0.17876856456554482,
        "lon": -105.81888199247277,
        "alt_km": 35772.65376502007,
        "timestamp": "2025-12-25T11:37:44.064824+00:00",
        "meta_object_name": "ELEKTRO-L 2",
        "meta_object_id": "2015-074A",
        "meta_epoch": "2025-12-24T23:18:12.436992",
        "meta_mean_motion": 1.0027204,
        "meta_eccentricity": 0.000354,
        "meta_inclination": 6.2545,
        "meta_ra_of_asc_node": 72.6824,
        "meta_arg_of_pericenter": 208.1447,
        "meta_mean_anomaly": 147.994,
        "meta_ephemeris_type": 0,
        "meta_classification_type": "U",
        "meta_norad_cat_id": 41105,
        "meta_element_set_no": 999,
        "meta_rev_at_epoch": 3675,
        "meta_bstar": 0,
        "meta_mean_motion_dot": -9.8e-07,
        "meta_mean_motion_ddot": 0,
        "tle_line1": "1 41105U 15074A   25358.97097728 -.00000098  00000+0  00000+0 0  9996",
        "tle_line2": "2 41105   6.2545  72.6824 0003540 208.1447 147.9940  1.00272040 36753"
      },
      "geometry": {
        "type": "Point",
        "coordinates": [
          -105.81888199247277,
          -0.17876856456554482
        ]
      }
    },
    {
      "type": "Feature",
      "properties": {
        "norad_id": 41752,
        "name": "INSAT-3DR",
        "group": "weather",
        "lat": -0.12706318814200562,
        "lon": -17.18534585083731,
        "alt_km": 35766.3308694033,
        "timestamp": "2025-12-25T11:37:44.064837+00:00",
        "meta_object_name": "INSAT-3DR",
        "meta_object_id": "2016-054A",
        "meta_epoch": "2025-12-24T15:09:51.705216",
        "meta_mean_motion": 1.00271379,
        "meta_eccentricity": 0.00142635,
        "meta_inclination": 0.1198,
        "meta_ra_of_asc_node": 86.2568,
        "meta_arg_of_pericenter": 185.6475,
        "meta_mean_anomaly": 122.9543,
        "meta_ephemeris_type": 0,
        "meta_classification_type": "U",
        "meta_norad_cat_id": 41752,
        "meta_element_set_no": 999,
        "meta_rev_at_epoch": 3406,
        "meta_bstar": 0,
        "meta_mean_motion_dot": -5.6e-07,
        "meta_mean_motion_ddot": 0,
        "tle_line1": "1 41752U 16054A   25358.63184844 -.00000056  00000+0  00000+0 0  9996",
        "tle_line2": "2 41752   0.1198  86.2568 0014263 185.6475 122.9543  1.00271379 34066"
      },
      "geometry": {
        "type": "Point",
        "coordinates": [
          -17.18534585083731,
          -0.12706318814200562
        ]
      }
    },
    {
      "type": "Feature",
      "properties": {
        "norad_id": 41836,
        "name": "HIMAWARI-9",
        "group": "weather",
        "lat": 0.0124865175205915,
        "lon": 49.46967342764338,
        "alt_km": 35784.61575290508,
        "timestamp": "2025-12-25T11:37:44.064852+00:00",
        "meta_object_name": "HIMAWARI-9",
        "meta_object_id": "2016-064A",
        "meta_epoch": "2025-12-23T22:52:38.784288",
        "meta_mean_motion": 1.00271828,
        "meta_eccentricity": 0.00016373,
        "meta_inclination": 0.0175,
        "meta_ra_of_asc_node": 40.3208,
        "meta_arg_of_pericenter": 292.8784,
        "meta_mean_anomaly": 243.4785,
        "meta_ephemeris_type": 0,
        "meta_classification_type": "U",
        "meta_norad_cat_id": 41836,
        "meta_element_set_no": 999,
        "meta_rev_at_epoch": 3345,
        "meta_bstar": 0,
        "meta_mean_motion_dot": 0,
        "meta_mean_motion_ddot": 0,
        "tle_line1": "1 41836U 16064A   25357.95322667  .00000000  00000+0  00000+0 0  9999",
        "tle_line2": "2 41836   0.0175  40.3208 0001637 292.8784 243.4785  1.00271828 33458"
      },
      "geometry": {
        "type": "Point",
        "coordinates": [
          49.46967342764338,
          0.0124865175205915
        ]
      }
    }
  ]
}